OBJECT_NAME,OBJECT_ID,EPOCH,MEAN_MOTION,ECCENTRICITY,INCLINATION,RA_OF_ASC_NODE,ARG_OF_PERICENTER,MEAN_ANOMALY,EPHEMERIS_TYPE,CLASSIFICATION_TYPE,NORAD_CAT_ID,ELEMENT_SET_NO,REV_AT_EPOCH,BSTAR,MEAN_MOTION_DOT,MEAN_MOTION_DDOT
STARLINK-31186,2024-038H,2024-03-01T16:00:00.999936,15.94143953,0.000152,43.0054,234.3496,262.9316,189.44,0,U,59030,999,189,-0.0032224,-0.01239801,0.00045709
STARLINK-31211,2024-038J,2024-03-01T16:00:00.999936,15.94218421,0.0001571,43.0055,234.3471,265.1229,188.1793,0,U,59031,999,179,-0.0032159,-0.01242215,0.00045906
STARLINK-30862,2024-038K,2024-03-01T16:00:00.999936,15.94320155,0.0001336,43.0054,234.3444,268.6749,185.7308,0,U,59032,999,179,-0.0032347,-0.01256096,0.00046896
STARLINK-31210,2024-038L,2024-03-01T16:00:00.999936,15.94426908,0.0001355,43.0053,234.3414,249.5741,206.0015,0,U,59033,999,195,-0.0032265,-0.01260054,0.00047217
STARLINK-31231,2024-038M,2024-03-01T16:00:00.999936,15.94528872,0.0001544,43.0054,234.3388,266.9145,189.7704,0,U,59034,999,179,-0.0032509,-0.01276394,0.00048392
STARLINK-31207,2024-038N,2024-03-01T16:00:00.999936,15.94628551,0.0001549,43.0051,234.3356,265.8527,191.9755,0,U,59035,999,195,-0.0032373,-0.01277856,0.00048542
STARLINK-31217,2024-038P,2024-03-01T16:00:00.999936,15.94700506,0.0001625,43.0051,234.333,255.7443,202.9815,0,U,59036,999,195,-0.0032423,-0.01284727,0.00049056
STARLINK-31208,2024-038Q,2024-03-02T06:00:00.999648,15.96406474,0.0002292,43.0055,230.651,265.3871,321.2445,0,U,59037,999,204,-0.0027147,-0.01181332,0.0004281
STARLINK-31235,2024-038R,2024-03-01T16:00:00.999936,15.95005606,0.000155,43.0049,234.3245,256.3434,205.7172,0,U,59038,999,189,-0.003274,-0.01318371,0.0005159
STARLINK-31220,2024-038S,2024-03-01T16:00:00.999936,15.94898541,0.0001748,43.0049,234.3274,253.8767,207.0741,0,U,59039,999,189,-0.0032454,-0.01299591,0.00050199
STARLINK-31225,2024-038T,2024-03-01T16:00:00.999936,15.95092903,0.0001509,43.0049,234.3219,266.4892,196.6259,0,U,59040,999,179,-0.0032582,-0.01318197,0.00051623
STARLINK-31240,2024-038U,2024-03-01T16:00:00.999936,15.95207951,0.0001272,43.0048,234.3189,268.8624,195.469,0,U,59041,999,189,-0.0032712,-0.01331509,0.00052642
STARLINK-31202,2024-038V,2024-03-01T16:00:00.999936,15.95302216,0.000109,43.0048,234.3161,260.8189,204.58,0,U,59042,999,195,-0.0032682,-0.01336996,0.0005309
STARLINK-31234,2024-038W,2024-03-01T16:00:00.999936,15.95497279,0.0001921,43.0049,234.3106,274.13,193.4488,0,U,59043,999,174,-0.0032829,-0.0135722,0.00054678
STARLINK-31153,2024-038X,2024-03-01T16:00:00.999936,15.95396887,0.0001406,43.0047,234.3133,278.2375,188.2434,0,U,59044,999,179,-0.0032767,-0.01347298,0.00053893
STARLINK-31241,2024-038Y,2024-03-01T16:00:00.999936,15.95598864,0.0001575,43.0049,234.3079,274.4912,194.2241,0,U,59045,999,195,-0.0032852,-0.01365497,0.00055347
STARLINK-31205,2024-038Z,2024-03-01T16:00:00.999936,15.95695151,0.0001431,43.0049,234.3051,271.27,198.5251,0,U,59046,999,189,-0.0032903,-0.01374653,0.00056083
METEOR-M2 4,2024-039A,2024-03-02T10:34:36.232032,14.2219162,0.0008148,98.5839,27.038,77.1846,81.7304,0,U,59051,999,31,0.00011528,2.13e-06,0
2024-039B,2024-039B,2024-03-02T10:07:58.279584,15.2240751,0.0018358,97.381,25.82,227.916,231.2541,0,U,59052,999,32,0.00064703,0.00014967,0
2024-039C,2024-039C,2024-03-02T10:14:20.819904,15.22423267,0.0018415,97.3808,25.825,227.9315,255.5637,0,U,59053,999,31,0.00078837,0.00018268,0
2024-039D,2024-039D,2024-03-02T10:15:49.735872,15.22480382,0.0018028,97.3808,25.8256,228.6672,260.9124,0,U,59054,999,33,0.00069946,0.0001622,0
2024-039F,2024-039F,2024-03-02T03:22:58.824768,15.22589058,0.0017511,97.3826,25.5495,228.7191,131.2545,0,U,59056,999,28,0.00076271,0.00017749,0
2024-039G,2024-039G,2024-03-02T04:57:36.523008,15.22595328,0.0017657,97.3825,25.6138,228.6668,131.305,0,U,59057,999,29,0.00076,0.0001769,0
2024-039H,2024-039H,2024-03-02T04:57:32.419872,15.226391,0.0017449,97.3815,25.612,229.7145,130.2566,0,U,59058,999,29,0.00085013,0.00019826,0
2024-039J,2024-039J,2024-03-01T22:38:53.420640,15.22702946,0.0017154,97.3816,25.3548,230.5537,129.4185,0,U,59059,999,25,0.00075838,0.00017704,0
2024-039K,2024-039K,2024-03-01T22:38:50.974656,15.22725693,0.0017479,97.3817,25.3525,228.59,131.3837,0,U,59060,999,25,0.00062528,0.00014591,0
2024-039L,2024-039L,2024-03-01T22:38:48.381792,15.22755482,0.0017594,97.3815,25.3521,229.3183,130.6527,0,U,59061,999,25,0.00064477,0.00015063,0
2024-039M,2024-039M,2024-03-02T04:57:14.672448,15.22803871,0.0017166,97.3814,25.6115,228.4787,131.4977,0,U,59062,999,29,0.00073653,0.00017243,0
2024-039N,2024-039N,2024-03-01T22:38:39.447168,15.2285682,0.0017163,97.3818,25.3515,229.7077,130.2663,0,U,59063,999,25,0.00068722,0.00016106,0
