STARLINK-31186          
1 59030U 24038H   24061.66667824 -.01239801  45709-3 -32224-2 0  9991
2 59030  43.0054 234.3496 0001520 262.9316 189.4400 15.94143953  1891
STARLINK-31211          
1 59031U 24038J   24061.66667824 -.01242215  45906-3 -32159-2 0  9991
2 59031  43.0055 234.3471 0001571 265.1229 188.1793 15.94218421  1793
STARLINK-30862          
1 59032U 24038K   24061.66667824 -.01256096  46896-3 -32347-2 0  9992
2 59032  43.0054 234.3444 0001336 268.6749 185.7308 15.94320155  1790
STARLINK-31210          
1 59033U 24038L   24061.66667824 -.01260054  47217-3 -32265-2 0  9999
2 59033  43.0053 234.3414 0001355 249.5741 206.0015 15.94426908  1951
STARLINK-31231          
1 59034U 24038M   24061.66667824 -.01276394  48392-3 -32509-2 0  9990
2 59034  43.0054 234.3388 0001544 266.9145 189.7704 15.94528872  1791
STARLINK-31207          
1 59035U 24038N   24061.66667824 -.01277856  48542-3 -32373-2 0  9991
2 59035  43.0051 234.3356 0001549 265.8527 191.9755 15.94628551  1955
STARLINK-31217          
1 59036U 24038P   24061.66667824 -.01284727  49056-3 -32423-2 0  9994
2 59036  43.0051 234.3330 0001625 255.7443 202.9815 15.94700506  1959
STARLINK-31208          
1 59037U 24038Q   24062.25001157 -.01181332  42810-3 -27147-2 0  9998
2 59037  43.0055 230.6510 0002292 265.3871 321.2445 15.96406474  2040
STARLINK-31235          
1 59038U 24038R   24061.66667824 -.01318371  51590-3 -32740-2 0  9997
2 59038  43.0049 234.3245 0001550 256.3434 205.7172 15.95005606  1897
STARLINK-31220          
1 59039U 24038S   24061.66667824 -.01299591  50199-3 -32454-2 0  9996
2 59039  43.0049 234.3274 0001748 253.8767 207.0741 15.94898541  1894
STARLINK-31225          
1 59040U 24038T   24061.66667824 -.01318197  51623-3 -32582-2 0  9997
2 59040  43.0049 234.3219 0001509 266.4892 196.6259 15.95092903  1794
STARLINK-31240          
1 59041U 24038U   24061.66667824 -.01331509  52642-3 -32712-2 0  9997
2 59041  43.0048 234.3189 0001272 268.8624 195.4690 15.95207951  1894
STARLINK-31202          
1 59042U 24038V   24061.66667824 -.01336996  53090-3 -32682-2 0  9997
2 59042  43.0048 234.3161 0001090 260.8189 204.5800 15.95302216  1953
STARLINK-31234          
1 59043U 24038W   24061.66667824 -.01357220  54678-3 -32829-2 0  9997
2 59043  43.0049 234.3106 0001921 274.1300 193.4488 15.95497279  1749
STARLINK-31153          
1 59044U 24038X   24061.66667824 -.01347298  53893-3 -32767-2 0  9991
2 59044  43.0047 234.3133 0001406 278.2375 188.2434 15.95396887  1794
STARLINK-31241          
1 59045U 24038Y   24061.66667824 -.01365497  55347-3 -32852-2 0  9994
2 59045  43.0049 234.3079 0001575 274.4912 194.2241 15.95598864  1958
STARLINK-31205          
1 59046U 24038Z   24061.66667824 -.01374653  56083-3 -32903-2 0  9994
2 59046  43.0049 234.3051 0001431 271.2700 198.5251 15.95695151  1898
METEOR-M2 4             
1 59051U 24039A   24062.44069713  .00000213  00000+0  11528-3 0  9991
2 59051  98.5839  27.0380 0008148  77.1846  81.7304 14.22191620   313
2024-039B               
1 59052U 24039B   24062.42220231  .00014967  00000+0  64703-3 0  9998
2 59052  97.3810  25.8200 0018358 227.9160 231.2541 15.22407510   320
2024-039C               
1 59053U 24039C   24062.42662986  .00018268  00000+0  78837-3 0  9997
2 59053  97.3808  25.8250 0018415 227.9315 255.5637 15.22423267   310
2024-039D               
1 59054U 24039D   24062.42765898  .00016220  00000+0  69946-3 0  9991
2 59054  97.3808  25.8256 0018028 228.6672 260.9124 15.22480382   335
2024-039F               
1 59056U 24039F   24062.14095862  .00017749  00000+0  76271-3 0  9995
2 59056  97.3826  25.5495 0017511 228.7191 131.2545 15.22589058   283
2024-039G               
1 59057U 24039G   24062.20667272  .00017690  00000+0  76000-3 0  9998
2 59057  97.3825  25.6138 0017657 228.6668 131.3050 15.22595328   297
2024-039H               
1 59058U 24039H   24062.20662523  .00019826  00000+0  85013-3 0  9990
2 59058  97.3815  25.6120 0017449 229.7145 130.2566 15.22639100   296
2024-039J               
1 59059U 24039J   24061.94367385  .00017704  00000+0  75838-3 0  9996
2 59059  97.3816  25.3548 0017154 230.5537 129.4185 15.22702946   259
2024-039K               
1 59060U 24039K   24061.94364554  .00014591  00000+0  62528-3 0  9996
2 59060  97.3817  25.3525 0017479 228.5900 131.3837 15.22725693   258
2024-039L               
1 59061U 24039L   24061.94361553  .00015063  00000+0  64477-3 0  9993
2 59061  97.3815  25.3521 0017594 229.3183 130.6527 15.22755482   250
2024-039M               
1 59062U 24039M   24062.20641982  .00017243  00000+0  73653-3 0  9999
2 59062  97.3814  25.6115 0017166 228.4787 131.4977 15.22803871   295
2024-039N               
1 59063U 24039N   24061.94351212  .00016106  00000+0  68722-3 0  9992
2 59063  97.3818  25.3515 0017163 229.7077 130.2663 15.22856820   251
